CCSDS_OMM_VERS = 2.0
CREATION_DATE  = 
ORIGINATOR     = 

OBJECT_NAME    = CZ-2D R/B
OBJECT_ID      = 2005-024B
CENTER_NAME    = EARTH
REF_FRAME      = TEME
TIME_SYSTEM    = UTC
MEAN_ELEMENT_THEORY = SGP/SGP4

EPOCH          = 2025-11-22T11:35:13.609824
MEAN_MOTION    = 15.51838554
ECCENTRICITY   = .00079822
INCLINATION    = 97.3645
RA_OF_ASC_NODE = 333.4195
ARG_OF_PERICENTER = 65.0861
MEAN_ANOMALY   = 295.1221

EPHEMERIS_TYPE = 0
CLASSIFICATION_TYPE = U
NORAD_CAT_ID   = 28738
ELEMENT_SET_NO = 999
REV_AT_EPOCH   = 12311
BSTAR          = .39795143E-3
MEAN_MOTION_DOT = .23771E-3
MEAN_MOTION_DDOT = 0

CCSDS_OMM_VERS = 2.0
CREATION_DATE  = 
ORIGINATOR     = 

OBJECT_NAME    = ALOS (DAICHI)
OBJECT_ID      = 2006-002A
CENTER_NAME    = EARTH
REF_FRAME      = TEME
TIME_SYSTEM    = UTC
MEAN_ELEMENT_THEORY = SGP/SGP4

EPOCH          = 2025-11-22T11:18:57.886848
MEAN_MOTION    = 14.69395900
ECCENTRICITY   = .00007843
INCLINATION    = 98.1064
RA_OF_ASC_NODE = 278.1062
ARG_OF_PERICENTER = 69.3751
MEAN_ANOMALY   = 290.7539

EPHEMERIS_TYPE = 0
CLASSIFICATION_TYPE = U
NORAD_CAT_ID   = 28931
ELEMENT_SET_NO = 999
REV_AT_EPOCH   = 5773
BSTAR          = .32391489E-3
MEAN_MOTION_DOT = .1867E-4
MEAN_MOTION_DDOT = 0

CCSDS_OMM_VERS = 2.0
CREATION_DATE  = 
ORIGINATOR     = 

OBJECT_NAME    = H-2A R/B
OBJECT_ID      = 2006-002B
CENTER_NAME    = EARTH
REF_FRAME      = TEME
TIME_SYSTEM    = UTC
MEAN_ELEMENT_THEORY = SGP/SGP4

EPOCH          = 2025-11-22T10:22:59.926656
MEAN_MOTION    = 15.13995931
ECCENTRICITY   = .00542968
INCLINATION    = 98.2317
RA_OF_ASC_NODE = 99.5345
ARG_OF_PERICENTER = 245.6236
MEAN_ANOMALY   = 113.9321

EPHEMERIS_TYPE = 0
CLASSIFICATION_TYPE = U
NORAD_CAT_ID   = 28932
ELEMENT_SET_NO = 999
REV_AT_EPOCH   = 7819
BSTAR          = .51016832E-3
MEAN_MOTION_DOT = .953E-4
MEAN_MOTION_DDOT = 0

CCSDS_OMM_VERS = 2.0
CREATION_DATE  = 
ORIGINATOR     = 

OBJECT_NAME    = RESURS-DK 1
OBJECT_ID      = 2006-021A
CENTER_NAME    = EARTH
REF_FRAME      = TEME
TIME_SYSTEM    = UTC
MEAN_ELEMENT_THEORY = SGP/SGP4

EPOCH          = 2025-11-22T12:30:41.691168
MEAN_MOTION    = 15.11990134
ECCENTRICITY   = .00073021
INCLINATION    = 69.9302
RA_OF_ASC_NODE = 154.0812
ARG_OF_PERICENTER = 274.8476
MEAN_ANOMALY   = 85.1856

EPHEMERIS_TYPE = 0
CLASSIFICATION_TYPE = U
NORAD_CAT_ID   = 29228
ELEMENT_SET_NO = 999
REV_AT_EPOCH   = 7132
BSTAR          = .16180601E-3
MEAN_MOTION_DOT = .2678E-4
MEAN_MOTION_DDOT = 0

CCSDS_OMM_VERS = 2.0
CREATION_DATE  = 
ORIGINATOR     = 

OBJECT_NAME    = CZ-4B R/B
OBJECT_ID      = 2006-046C
CENTER_NAME    = EARTH
REF_FRAME      = TEME
TIME_SYSTEM    = UTC
MEAN_ELEMENT_THEORY = SGP/SGP4

EPOCH          = 2025-11-22T02:32:09.936384
MEAN_MOTION    = 15.15578060
ECCENTRICITY   = .00326015
INCLINATION    = 97.5759
RA_OF_ASC_NODE = 6.3013
ARG_OF_PERICENTER = 280.7157
MEAN_ANOMALY   = 79.0406

EPHEMERIS_TYPE = 0
CLASSIFICATION_TYPE = U
NORAD_CAT_ID   = 29507
ELEMENT_SET_NO = 999
REV_AT_EPOCH   = 4374
BSTAR          = .2641719E-3
MEAN_MOTION_DOT = .501E-4
MEAN_MOTION_DDOT = 0

CCSDS_OMM_VERS = 2.0
CREATION_DATE  = 
ORIGINATOR     = 

OBJECT_NAME    = CZ-2C R/B
OBJECT_ID      = 2007-010B
CENTER_NAME    = EARTH
REF_FRAME      = TEME
TIME_SYSTEM    = UTC
MEAN_ELEMENT_THEORY = SGP/SGP4

EPOCH          = 2025-11-22T08:35:16.048896
MEAN_MOTION    = 14.20197572
ECCENTRICITY   = .00580271
INCLINATION    = 98.3970
RA_OF_ASC_NODE = 80.0354
ARG_OF_PERICENTER = 245.8217
MEAN_ANOMALY   = 113.6888

EPHEMERIS_TYPE = 0
CLASSIFICATION_TYPE = U
NORAD_CAT_ID   = 31114
ELEMENT_SET_NO = 999
REV_AT_EPOCH   = 96448
BSTAR          = .11718391E-3
MEAN_MOTION_DOT = .213E-5
MEAN_MOTION_DDOT = 0

CCSDS_OMM_VERS = 2.0
CREATION_DATE  = 
ORIGINATOR     = 

OBJECT_NAME    = COSMO-SKYMED 1
OBJECT_ID      = 2007-023A
CENTER_NAME    = EARTH
REF_FRAME      = TEME
TIME_SYSTEM    = UTC
MEAN_ELEMENT_THEORY = SGP/SGP4

EPOCH          = 2025-11-22T15:37:04.564992
MEAN_MOTION    = 14.95548783
ECCENTRICITY   = .00011218
INCLINATION    = 97.8836
RA_OF_ASC_NODE = 151.9209
ARG_OF_PERICENTER = 90.2876
MEAN_ANOMALY   = 269.8473

EPHEMERIS_TYPE = 0
CLASSIFICATION_TYPE = U
NORAD_CAT_ID   = 31598
ELEMENT_SET_NO = 999
REV_AT_EPOCH   = 99889
BSTAR          = .34190642E-3
MEAN_MOTION_DOT = .3732E-4
MEAN_MOTION_DDOT = 0

CCSDS_OMM_VERS = 2.0
CREATION_DATE  = 
ORIGINATOR     = 

OBJECT_NAME    = COSMOS 2428
OBJECT_ID      = 2007-029A
CENTER_NAME    = EARTH
REF_FRAME      = TEME
TIME_SYSTEM    = UTC
MEAN_ELEMENT_THEORY = SGP/SGP4

EPOCH          = 2025-11-22T13:27:45.818208
MEAN_MOTION    = 14.12886978
ECCENTRICITY   = .00025886
INCLINATION    = 70.9370
RA_OF_ASC_NODE = 68.2442
ARG_OF_PERICENTER = 56.9518
MEAN_ANOMALY   = 303.1851

EPHEMERIS_TYPE = 0
CLASSIFICATION_TYPE = U
NORAD_CAT_ID   = 31792
ELEMENT_SET_NO = 999
REV_AT_EPOCH   = 94896
BSTAR          = -.54521979E-4
MEAN_MOTION_DOT = -.149E-5
MEAN_MOTION_DDOT = 0

CCSDS_OMM_VERS = 2.0
CREATION_DATE  = 
ORIGINATOR     = 

OBJECT_NAME    = SL-16 R/B
OBJECT_ID      = 2007-029B
CENTER_NAME    = EARTH
REF_FRAME      = TEME
TIME_SYSTEM    = UTC
MEAN_ELEMENT_THEORY = SGP/SGP4

EPOCH          = 2025-11-22T12:41:37.785984
MEAN_MOTION    = 14.14816319
ECCENTRICITY   = .00022833
INCLINATION    = 70.9779
RA_OF_ASC_NODE = 37.6412
ARG_OF_PERICENTER = 264.1680
MEAN_ANOMALY   = 191.5640

EPHEMERIS_TYPE = 0
CLASSIFICATION_TYPE = U
NORAD_CAT_ID   = 31793
ELEMENT_SET_NO = 999
REV_AT_EPOCH   = 95021
BSTAR          = .89132347E-4
MEAN_MOTION_DOT = .124E-5
MEAN_MOTION_DDOT = 0

CCSDS_OMM_VERS = 2.0
CREATION_DATE  = 
ORIGINATOR     = 

OBJECT_NAME    = KORONAS-FOTON
OBJECT_ID      = 2009-003A
CENTER_NAME    = EARTH
REF_FRAME      = TEME
TIME_SYSTEM    = UTC
MEAN_ELEMENT_THEORY = SGP/SGP4

EPOCH          = 2025-11-22T13:23:12.461568
MEAN_MOTION    = 15.40555862
ECCENTRICITY   = .00118197
INCLINATION    = 82.4327
RA_OF_ASC_NODE = 27.0058
ARG_OF_PERICENTER = 175.6414
MEAN_ANOMALY   = 184.4937

EPHEMERIS_TYPE = 0
CLASSIFICATION_TYPE = U
NORAD_CAT_ID   = 33504
ELEMENT_SET_NO = 999
REV_AT_EPOCH   = 92923
BSTAR          = .26480334E-3
MEAN_MOTION_DOT = .10821E-3
MEAN_MOTION_DDOT = 0

CCSDS_OMM_VERS = 2.0
CREATION_DATE  = 
ORIGINATOR     = 

OBJECT_NAME    = CZ-2C R/B
OBJECT_ID      = 2011-030B
CENTER_NAME    = EARTH
REF_FRAME      = TEME
TIME_SYSTEM    = UTC
MEAN_ELEMENT_THEORY = SGP/SGP4

EPOCH          = 2025-11-22T11:12:46.725408
MEAN_MOTION    = 14.80799169
ECCENTRICITY   = .00525734
INCLINATION    = 97.8383
RA_OF_ASC_NODE = 281.0274
ARG_OF_PERICENTER = 341.0189
MEAN_ANOMALY   = 130.0599

EPHEMERIS_TYPE = 0
CLASSIFICATION_TYPE = U
NORAD_CAT_ID   = 37731
ELEMENT_SET_NO = 999
REV_AT_EPOCH   = 77422
BSTAR          = .27411454E-3
MEAN_MOTION_DOT = .2109E-4
MEAN_MOTION_DDOT = 0

CCSDS_OMM_VERS = 2.0
CREATION_DATE  = 
ORIGINATOR     = 

OBJECT_NAME    = H-2A R/B
OBJECT_ID      = 2012-025E
CENTER_NAME    = EARTH
REF_FRAME      = TEME
TIME_SYSTEM    = UTC
MEAN_ELEMENT_THEORY = SGP/SGP4

EPOCH          = 2025-11-22T11:38:12.304896
MEAN_MOTION    = 14.94247274
ECCENTRICITY   = .00440044
INCLINATION    = 98.4568
RA_OF_ASC_NODE = 280.1593
ARG_OF_PERICENTER = 304.7023
MEAN_ANOMALY   = 55.0053

EPHEMERIS_TYPE = 0
CLASSIFICATION_TYPE = U
NORAD_CAT_ID   = 38341
ELEMENT_SET_NO = 999
REV_AT_EPOCH   = 73220
BSTAR          = .4021814E-3
MEAN_MOTION_DOT = .4328E-4
MEAN_MOTION_DDOT = 0

