CZ-2D R/B               
1 28738U 05024B   25326.48279641  .00023771  00000+0  39795-3 0  9993
2 28738  97.3645 333.4195 0007982  65.0861 295.1221 15.51838554123119
ALOS (DAICHI)           
1 28931U 06002A   25326.47150332  .00001867  00000+0  32391-3 0  9996
2 28931  98.1064 278.1062 0000784  69.3751 290.7539 14.69395900 57732
H-2A R/B                
1 28932U 06002B   25326.43263804  .00009530  00000+0  51017-3 0  9993
2 28932  98.2317  99.5345 0054296 245.6236 113.9321 15.13995931 78196
RESURS-DK 1             
1 29228U 06021A   25326.52131587  .00002678  00000+0  16181-3 0  9994
2 29228  69.9302 154.0812 0007302 274.8476  85.1856 15.11990134 71325
CZ-4B R/B               
1 29507U 06046C   25326.10567056  .00005010  00000+0  26417-3 0  9995
2 29507  97.5759   6.3013 0032601 280.7157  79.0406 15.15578060 43744
CZ-2C R/B               
1 31114U 07010B   25326.35782464  .00000213  00000+0  11718-3 0  9991
2 31114  98.3970  80.0354 0058027 245.8217 113.6888 14.20197572964483
COSMO-SKYMED 1          
1 31598U 07023A   25326.65074728  .00003732  00000+0  34191-3 0  9990
2 31598  97.8836 151.9209 0001121  90.2876 269.8473 14.95548783998899
COSMOS 2428             
1 31792U 07029A   25326.56094697 -.00000149  00000+0 -54522-4 0  9991
2 31792  70.9370  68.2442 0002588  56.9518 303.1851 14.12886978948964
SL-16 R/B               
1 31793U 07029B   25326.52890956  .00000124  00000+0  89132-4 0  9996
2 31793  70.9779  37.6412 0002283 264.1680 191.5640 14.14816319950210
KORONAS-FOTON           
1 33504U 09003A   25326.55778312  .00010821  00000+0  26480-3 0  9997
2 33504  82.4327  27.0058 0011819 175.6414 184.4937 15.40555862929235
CZ-2C R/B               
1 37731U 11030B   25326.46720747  .00002109  00000+0  27411-3 0  9990
2 37731  97.8383 281.0274 0052573 341.0189 130.0599 14.80799169774226
H-2A R/B                
1 38341U 12025E   25326.48486464  .00004328  00000+0  40218-3 0  9995
2 38341  98.4568 280.1593 0044004 304.7023  55.0053 14.94247274732206
